GLOBALSTAR M075         
1 37192U 10054E   25029.92448595 -.00000083  00000+0  11644-3 0  9996
2 37192  51.9928 242.5173 0001031  82.7886  52.0197 12.62272635658386
GLOBALSTAR M073         
1 37193U 10054F   25029.92545580 -.00000117  00000+0 -73237-4 0  9995
2 37193  52.0049 156.2268 0000954  98.6711  39.3174 12.62262753660426
GLOBALSTAR M083         
1 37739U 11033A   25029.94558030 -.00000086  00000+0  99895-4 0  9997
2 37739  51.9857 105.0848 0000454 117.8033  52.8215 12.62271172629391
GLOBALSTAR M088         
1 37740U 11033B   25030.20133861 -.00000102  00000+0  12373-4 0  9996
2 37740  51.9758   9.9130 0000222  58.2294 315.3066 12.62267833625261
GLOBALSTAR M091         
1 37741U 11033C   25029.61577608 -.00000083  00000+0  11650-3 0  9995
2 37741  52.0024 335.0063 0000342  21.4814 149.4068 12.62273233625686
GLOBALSTAR M085         
1 37742U 11033D   25029.96393269 -.00000058  00000+0  25652-3 0  9992
2 37742  51.9870 285.1088 0000649  54.1617 319.4547 12.62264824626240
GLOBALSTAR M081         
1 37743U 11033E   25030.09867455 -.00000059  00000+0  24949-3 0  9991
2 37743  51.9962 287.3983 0000853  50.7569  96.6559 12.62259986626785
GLOBALSTAR M089         
1 37744U 11033F   25030.06293166 -.00000079  00000+0  14068-3 0  9994
2 37744  51.9910 241.7617 0001233  81.0640  82.8276 12.62265871627499
